[
    {
        "name": "桐山 洋介",
        "zip": "9496302",
        "pref": "福島県",
        "city": "石田市",
        "address": "原田町吉田4-2-6",
        "phone": "0750-94-6872",
        "company": "株式会社 山田"
    },
    {
        "name": "松本 翔太",
        "zip": "7126130",
        "pref": "北海道",
        "city": "山本市",
        "address": "田辺町田辺1-10-4",
        "phone": "03900-2-5250",
        "company": "株式会社 三宅"
    },
    {
        "name": "山口 智也",
        "zip": "4238634",
        "pref": "石川県",
        "city": "廣川市",
        "address": "笹田町大垣3-3-9",
        "phone": "0410-547-574",
        "company": "有限会社 小林"
    },
    {
        "name": "野村 健一",
        "zip": "7665136",
        "pref": "福島県",
        "city": "坂本市",
        "address": "井高町桐山6-1-1",
        "phone": "090-2464-3559",
        "company": "有限会社 野村"
    },
    {
        "name": "杉山 明美",
        "zip": "5984051",
        "pref": "島根県",
        "city": "喜嶋市",
        "address": "田辺町渚6-9-3",
        "phone": "0997-88-2461",
        "company": "有限会社 江古田"
    },
    {
        "name": "大垣 美加子",
        "zip": "4371907",
        "pref": "宮崎県",
        "city": "杉山市",
        "address": "藤本町小林6-4-4",
        "phone": "097-075-8156",
        "company": "株式会社 井高"
    },
    {
        "name": "木村 聡太郎",
        "zip": "5802765",
        "pref": "北海道",
        "city": "藤本市",
        "address": "小泉町若松10-6-5",
        "phone": "09486-7-9878",
        "company": "有限会社 宇野"
    },
    {
        "name": "吉田 康弘",
        "zip": "5794324",
        "pref": "愛媛県",
        "city": "田中市",
        "address": "宮沢町西之園5-8-4",
        "phone": "0105-48-6954",
        "company": "有限会社 桐山"
    },
    {
        "name": "青山 花子",
        "zip": "3172469",
        "pref": "徳島県",
        "city": "高橋市",
        "address": "坂本町高橋5-3-8",
        "phone": "080-3978-2300",
        "company": "有限会社 加藤"
    },
    {
        "name": "吉本 春香",
        "zip": "3378067",
        "pref": "北海道",
        "city": "鈴木市",
        "address": "桐山町山田10-10-9",
        "phone": "07069-5-0646",
        "company": "有限会社 浜田"
    },
    {
        "name": "小泉 七夏",
        "zip": "5963778",
        "pref": "山口県",
        "city": "吉田市",
        "address": "加藤町小林2-2-1",
        "phone": "090-9532-9203",
        "company": "有限会社 石田"
    },
    {
        "name": "大垣 和也",
        "zip": "2441854",
        "pref": "宮城県",
        "city": "伊藤市",
        "address": "小林町津田10-4-4",
        "phone": "07-0073-5984",
        "company": "株式会社 木村"
    },
    {
        "name": "工藤 加奈",
        "zip": "1701692",
        "pref": "滋賀県",
        "city": "若松市",
        "address": "井高町桐山7-8-6",
        "phone": "090-2680-6519",
        "company": "有限会社 浜田"
    },
    {
        "name": "浜田 翼",
        "zip": "6826365",
        "pref": "香川県",
        "city": "藤本市",
        "address": "廣川町三宅8-9-3",
        "phone": "090-2503-1233",
        "company": "株式会社 斉藤"
    },
    {
        "name": "村山 稔",
        "zip": "7054438",
        "pref": "栃木県",
        "city": "加藤市",
        "address": "松本町松本10-3-8",
        "phone": "0243-01-2160",
        "company": "有限会社 坂本"
    },
    {
        "name": "井上 あすか",
        "zip": "2037278",
        "pref": "大分県",
        "city": "田辺市",
        "address": "加藤町渡辺1-2-1",
        "phone": "0707-88-4058",
        "company": "有限会社 加藤"
    },
    {
        "name": "廣川 裕樹",
        "zip": "9493582",
        "pref": "愛媛県",
        "city": "吉田市",
        "address": "中村町廣川7-10-1",
        "phone": "01-4762-3901",
        "company": "株式会社 青田"
    },
    {
        "name": "山本 直子",
        "zip": "4625763",
        "pref": "宮城県",
        "city": "桐山市",
        "address": "井高町近藤6-4-4",
        "phone": "00-1516-9858",
        "company": "株式会社 伊藤"
    },
    {
        "name": "山口 さゆり",
        "zip": "6473713",
        "pref": "島根県",
        "city": "加藤市",
        "address": "三宅町山本4-8-2",
        "phone": "0288-87-8620",
        "company": "有限会社 吉本"
    },
    {
        "name": "桐山 太郎",
        "zip": "8165500",
        "pref": "富山県",
        "city": "近藤市",
        "address": "青田町斉藤3-6-7",
        "phone": "089-130-8481",
        "company": "株式会社 佐藤"
    },
    {
        "name": "吉本 聡太郎",
        "zip": "5502066",
        "pref": "佐賀県",
        "city": "宇野市",
        "address": "三宅町西之園2-7-2",
        "phone": "094-618-4879",
        "company": "株式会社 杉山"
    },
    {
        "name": "佐藤 あすか",
        "zip": "8501521",
        "pref": "山形県",
        "city": "渚市",
        "address": "村山町中島3-8-7",
        "phone": "0940-258-007",
        "company": "有限会社 斉藤"
    },
    {
        "name": "浜田 直樹",
        "zip": "4409070",
        "pref": "千葉県",
        "city": "江古田市",
        "address": "中島町坂本1-2-1",
        "phone": "0170-353-897",
        "company": "有限会社 佐々木"
    },
    {
        "name": "松本 舞",
        "zip": "4255417",
        "pref": "鳥取県",
        "city": "笹田市",
        "address": "高橋町伊藤7-5-6",
        "phone": "062-629-1392",
        "company": "有限会社 渚"
    },
    {
        "name": "加藤 加奈",
        "zip": "7376383",
        "pref": "北海道",
        "city": "山本市",
        "address": "青田町小泉7-10-1",
        "phone": "0330-027-176",
        "company": "有限会社 廣川"
    },
    {
        "name": "斉藤 直子",
        "zip": "6942766",
        "pref": "岩手県",
        "city": "西之園市",
        "address": "小林町若松5-7-1",
        "phone": "024-613-9077",
        "company": "有限会社 浜田"
    },
    {
        "name": "山岸 稔",
        "zip": "7898610",
        "pref": "熊本県",
        "city": "坂本市",
        "address": "青田町山本2-3-3",
        "phone": "0372-36-2004",
        "company": "有限会社 三宅"
    },
    {
        "name": "喜嶋 裕樹",
        "zip": "1095379",
        "pref": "青森県",
        "city": "伊藤市",
        "address": "宮沢町吉本4-4-7",
        "phone": "0160-744-329",
        "company": "有限会社 小林"
    },
    {
        "name": "江古田 陽子",
        "zip": "3704379",
        "pref": "新潟県",
        "city": "中島市",
        "address": "中島町加藤5-2-1",
        "phone": "059-658-6844",
        "company": "有限会社 宮沢"
    },
    {
        "name": "三宅 花子",
        "zip": "3547477",
        "pref": "徳島県",
        "city": "加藤市",
        "address": "松本町原田3-5-5",
        "phone": "080-5738-6346",
        "company": "株式会社 笹田"
    }
]